[{"OBJECT_NAME":"LEMUR-2-BALTO","OBJECT_ID":"2025-052BH","EPOCH":"2026-03-09T16:40:42.002112","MEAN_MOTION":14.98934076,"ECCENTRICITY":0.00022794,"INCLINATION":97.6978,"RA_OF_ASC_NODE":323.5166,"ARG_OF_PERICENTER":359.2852,"MEAN_ANOMALY":0.8367,"EPHEMERIS_TYPE":0,"CLASSIFICATION_TYPE":"U","NORAD_CAT_ID":63395,"ELEMENT_SET_NO":999,"REV_AT_EPOCH":5385,"BSTAR":0.00063455958,"MEAN_MOTION_DOT":7.621e-5,"MEAN_MOTION_DDOT":0},{"OBJECT_NAME":"STARLINK-34051","OBJECT_ID":"2025-102A","EPOCH":"2026-03-09T11:58:54.552864","MEAN_MOTION":14.98336627,"ECCENTRICITY":0.00035108,"INCLINATION":70.0013,"RA_OF_ASC_NODE":114.9428,"ARG_OF_PERICENTER":262.1194,"MEAN_ANOMALY":97.9567,"EPHEMERIS_TYPE":0,"CLASSIFICATION_TYPE":"U","NORAD_CAT_ID":64022,"ELEMENT_SET_NO":999,"REV_AT_EPOCH":4592,"BSTAR":-9.226319e-6,"MEAN_MOTION_DOT":-2.03e-6,"MEAN_MOTION_DDOT":0}]
